SL-16 R/B               
1 22566U 93016B   26028.98860376  .00000334  00000+0  19581-3 0  9991
2 22566  71.0087 298.5687 0009542  11.3405 348.7931 14.15300889696550
COSMOS 2242             
1 22626U 93024A   26028.85070065  .00003721  00000+0  32547-3 0  9991
2 22626  82.5209 304.8150 0018017  79.8030 280.5223 14.96369290774437
SL-16 R/B               
1 22803U 93059B   26028.59842337 -.00000104  00000+0 -27717-4 0  9994
2 22803  70.9900  95.6754 0019594 271.1654  88.7225 14.17223201673856
ARIANE 40 R/B           
1 22830U 93061H   26028.75525090  .00000415  00000+0  16793-3 0  9993
2 22830  98.5001  98.4141 0011422  47.3505 312.8640 14.32838698688380
COSMOS 2278             
1 23087U 94023A   26028.92147028 -.00000142  00000+0 -49583-4 0  9990
2 23087  71.0519 258.3006 0006278  88.7316 271.4526 14.14366607639187
SL-16 R/B               
1 23088U 94023B   26028.77390668 -.00000183  00000+0 -69967-4 0  9997
2 23088  71.0004 154.7143 0004278 321.9323  38.1496 14.15006097640446
SL-16 R/B               
1 23343U 94074B   26028.95608844  .00000794  00000+0  11314-3 0  9993
2 23343  97.7158  61.3744 0006531   3.8838  62.1823 14.79357531681376
SL-16 R/B               
1 23405U 94077B   26028.55911509 -.00000189  00000+0 -72065-4 0  9997
2 23405  70.9824  76.9185 0004749 248.2805 111.7812 14.15558283610555
ARIANE 40+ R/B          
1 23561U 95021B   26028.72706665  .00000494  00000+0  17173-3 0  9999
2 23561  98.4578 100.7346 0005672 259.2405 211.8299 14.39740886613493
SL-16 R/B               
1 23705U 95058B   26028.98813506 -.00000062  00000+0 -75792-5 0  9996
2 23705  71.0194 263.6088 0012923 190.1911 169.8952 14.15487877562233
SL-16 R/B               
1 24298U 96051B   26028.93937556  .00000079  00000+0  69285-4 0  9990
2 24298  70.7570 259.3780 0018256 202.6730 157.3585 14.12404372516036
ORBVIEW 2 (SEASTAR)     
1 24883U 97037A   26028.96607451  .00000539  00000+0  20377-3 0  9995
2 24883  98.8499 192.2409 0002506 155.1679 204.9627 14.35462239502778
