CCSDS_OMM_VERS = 2.0
CREATION_DATE  = 
ORIGINATOR     = 

OBJECT_NAME    = SL-16 R/B
OBJECT_ID      = 1993-016B
CENTER_NAME    = EARTH
REF_FRAME      = TEME
TIME_SYSTEM    = UTC
MEAN_ELEMENT_THEORY = SGP/SGP4

EPOCH          = 2026-01-28T23:43:35.364864
MEAN_MOTION    = 14.15300889
ECCENTRICITY   = .00095425
INCLINATION    = 71.0087
RA_OF_ASC_NODE = 298.5687
ARG_OF_PERICENTER = 11.3405
MEAN_ANOMALY   = 348.7931

EPHEMERIS_TYPE = 0
CLASSIFICATION_TYPE = U
NORAD_CAT_ID   = 22566
ELEMENT_SET_NO = 999
REV_AT_EPOCH   = 69655
BSTAR          = .19581339E-3
MEAN_MOTION_DOT = .334E-5
MEAN_MOTION_DDOT = 0

CCSDS_OMM_VERS = 2.0
CREATION_DATE  = 
ORIGINATOR     = 

OBJECT_NAME    = COSMOS 2242
OBJECT_ID      = 1993-024A
CENTER_NAME    = EARTH
REF_FRAME      = TEME
TIME_SYSTEM    = UTC
MEAN_ELEMENT_THEORY = SGP/SGP4

EPOCH          = 2026-01-28T20:25:00.536160
MEAN_MOTION    = 14.96369290
ECCENTRICITY   = .00180171
INCLINATION    = 82.5209
RA_OF_ASC_NODE = 304.8150
ARG_OF_PERICENTER = 79.8030
MEAN_ANOMALY   = 280.5223

EPHEMERIS_TYPE = 0
CLASSIFICATION_TYPE = U
NORAD_CAT_ID   = 22626
ELEMENT_SET_NO = 999
REV_AT_EPOCH   = 77443
BSTAR          = .32547085E-3
MEAN_MOTION_DOT = .3721E-4
MEAN_MOTION_DDOT = 0

CCSDS_OMM_VERS = 2.0
CREATION_DATE  = 
ORIGINATOR     = 

OBJECT_NAME    = SL-16 R/B
OBJECT_ID      = 1993-059B
CENTER_NAME    = EARTH
REF_FRAME      = TEME
TIME_SYSTEM    = UTC
MEAN_ELEMENT_THEORY = SGP/SGP4

EPOCH          = 2026-01-28T14:21:43.779168
MEAN_MOTION    = 14.17223201
ECCENTRICITY   = .00195941
INCLINATION    = 70.9900
RA_OF_ASC_NODE = 95.6754
ARG_OF_PERICENTER = 271.1654
MEAN_ANOMALY   = 88.7225

EPHEMERIS_TYPE = 0
CLASSIFICATION_TYPE = U
NORAD_CAT_ID   = 22803
ELEMENT_SET_NO = 999
REV_AT_EPOCH   = 67385
BSTAR          = -.27717017E-4
MEAN_MOTION_DOT = -.104E-5
MEAN_MOTION_DDOT = 0

CCSDS_OMM_VERS = 2.0
CREATION_DATE  = 
ORIGINATOR     = 

OBJECT_NAME    = ARIANE 40 R/B
OBJECT_ID      = 1993-061H
CENTER_NAME    = EARTH
REF_FRAME      = TEME
TIME_SYSTEM    = UTC
MEAN_ELEMENT_THEORY = SGP/SGP4

EPOCH          = 2026-01-28T18:07:33.677760
MEAN_MOTION    = 14.32838698
ECCENTRICITY   = .00114227
INCLINATION    = 98.5001
RA_OF_ASC_NODE = 98.4141
ARG_OF_PERICENTER = 47.3505
MEAN_ANOMALY   = 312.8640

EPHEMERIS_TYPE = 0
CLASSIFICATION_TYPE = U
NORAD_CAT_ID   = 22830
ELEMENT_SET_NO = 999
REV_AT_EPOCH   = 68838
BSTAR          = .16793253E-3
MEAN_MOTION_DOT = .415E-5
MEAN_MOTION_DDOT = 0

CCSDS_OMM_VERS = 2.0
CREATION_DATE  = 
ORIGINATOR     = 

OBJECT_NAME    = COSMOS 2278
OBJECT_ID      = 1994-023A
CENTER_NAME    = EARTH
REF_FRAME      = TEME
TIME_SYSTEM    = UTC
MEAN_ELEMENT_THEORY = SGP/SGP4

EPOCH          = 2026-01-28T22:06:55.032192
MEAN_MOTION    = 14.14366607
ECCENTRICITY   = .00062786
INCLINATION    = 71.0519
RA_OF_ASC_NODE = 258.3006
ARG_OF_PERICENTER = 88.7316
MEAN_ANOMALY   = 271.4526

EPHEMERIS_TYPE = 0
CLASSIFICATION_TYPE = U
NORAD_CAT_ID   = 23087
ELEMENT_SET_NO = 999
REV_AT_EPOCH   = 63918
BSTAR          = -.49582808E-4
MEAN_MOTION_DOT = -.142E-5
MEAN_MOTION_DDOT = 0

CCSDS_OMM_VERS = 2.0
CREATION_DATE  = 
ORIGINATOR     = 

OBJECT_NAME    = SL-16 R/B
OBJECT_ID      = 1994-023B
CENTER_NAME    = EARTH
REF_FRAME      = TEME
TIME_SYSTEM    = UTC
MEAN_ELEMENT_THEORY = SGP/SGP4

EPOCH          = 2026-01-28T18:34:25.537152
MEAN_MOTION    = 14.15006097
ECCENTRICITY   = .00042787
INCLINATION    = 71.0004
RA_OF_ASC_NODE = 154.7143
ARG_OF_PERICENTER = 321.9323
MEAN_ANOMALY   = 38.1496

EPHEMERIS_TYPE = 0
CLASSIFICATION_TYPE = U
NORAD_CAT_ID   = 23088
ELEMENT_SET_NO = 999
REV_AT_EPOCH   = 64044
BSTAR          = -.69967225E-4
MEAN_MOTION_DOT = -.183E-5
MEAN_MOTION_DDOT = 0

CCSDS_OMM_VERS = 2.0
CREATION_DATE  = 
ORIGINATOR     = 

OBJECT_NAME    = SL-16 R/B
OBJECT_ID      = 1994-074B
CENTER_NAME    = EARTH
REF_FRAME      = TEME
TIME_SYSTEM    = UTC
MEAN_ELEMENT_THEORY = SGP/SGP4

EPOCH          = 2026-01-28T22:56:46.041216
MEAN_MOTION    = 14.79357531
ECCENTRICITY   = .00065316
INCLINATION    = 97.7158
RA_OF_ASC_NODE = 61.3744
ARG_OF_PERICENTER = 3.8838
MEAN_ANOMALY   = 62.1823

EPHEMERIS_TYPE = 0
CLASSIFICATION_TYPE = U
NORAD_CAT_ID   = 23343
ELEMENT_SET_NO = 999
REV_AT_EPOCH   = 68137
BSTAR          = .11314378E-3
MEAN_MOTION_DOT = .794E-5
MEAN_MOTION_DDOT = 0

CCSDS_OMM_VERS = 2.0
CREATION_DATE  = 
ORIGINATOR     = 

OBJECT_NAME    = SL-16 R/B
OBJECT_ID      = 1994-077B
CENTER_NAME    = EARTH
REF_FRAME      = TEME
TIME_SYSTEM    = UTC
MEAN_ELEMENT_THEORY = SGP/SGP4

EPOCH          = 2026-01-28T13:25:07.543776
MEAN_MOTION    = 14.15558283
ECCENTRICITY   = .0004749
INCLINATION    = 70.9824
RA_OF_ASC_NODE = 76.9185
ARG_OF_PERICENTER = 248.2805
MEAN_ANOMALY   = 111.7812

EPHEMERIS_TYPE = 0
CLASSIFICATION_TYPE = U
NORAD_CAT_ID   = 23405
ELEMENT_SET_NO = 999
REV_AT_EPOCH   = 61055
BSTAR          = -.72064938E-4
MEAN_MOTION_DOT = -.189E-5
MEAN_MOTION_DDOT = 0

CCSDS_OMM_VERS = 2.0
CREATION_DATE  = 
ORIGINATOR     = 

OBJECT_NAME    = ARIANE 40+ R/B
OBJECT_ID      = 1995-021B
CENTER_NAME    = EARTH
REF_FRAME      = TEME
TIME_SYSTEM    = UTC
MEAN_ELEMENT_THEORY = SGP/SGP4

EPOCH          = 2026-01-28T17:26:58.558560
MEAN_MOTION    = 14.39740886
ECCENTRICITY   = .00056721
INCLINATION    = 98.4578
RA_OF_ASC_NODE = 100.7346
ARG_OF_PERICENTER = 259.2405
MEAN_ANOMALY   = 211.8299

EPHEMERIS_TYPE = 0
CLASSIFICATION_TYPE = U
NORAD_CAT_ID   = 23561
ELEMENT_SET_NO = 999
REV_AT_EPOCH   = 61349
BSTAR          = .17172725E-3
MEAN_MOTION_DOT = .494E-5
MEAN_MOTION_DDOT = 0

CCSDS_OMM_VERS = 2.0
CREATION_DATE  = 
ORIGINATOR     = 

OBJECT_NAME    = SL-16 R/B
OBJECT_ID      = 1995-058B
CENTER_NAME    = EARTH
REF_FRAME      = TEME
TIME_SYSTEM    = UTC
MEAN_ELEMENT_THEORY = SGP/SGP4

EPOCH          = 2026-01-28T23:42:54.869184
MEAN_MOTION    = 14.15487877
ECCENTRICITY   = .00129231
INCLINATION    = 71.0194
RA_OF_ASC_NODE = 263.6088
ARG_OF_PERICENTER = 190.1911
MEAN_ANOMALY   = 169.8952

EPHEMERIS_TYPE = 0
CLASSIFICATION_TYPE = U
NORAD_CAT_ID   = 23705
ELEMENT_SET_NO = 999
REV_AT_EPOCH   = 56223
BSTAR          = -.7579182E-5
MEAN_MOTION_DOT = -.62E-6
MEAN_MOTION_DDOT = 0

CCSDS_OMM_VERS = 2.0
CREATION_DATE  = 
ORIGINATOR     = 

OBJECT_NAME    = SL-16 R/B
OBJECT_ID      = 1996-051B
CENTER_NAME    = EARTH
REF_FRAME      = TEME
TIME_SYSTEM    = UTC
MEAN_ELEMENT_THEORY = SGP/SGP4

EPOCH          = 2026-01-28T22:32:42.048384
MEAN_MOTION    = 14.12404372
ECCENTRICITY   = .00182566
INCLINATION    = 70.7570
RA_OF_ASC_NODE = 259.3780
ARG_OF_PERICENTER = 202.6730
MEAN_ANOMALY   = 157.3585

EPHEMERIS_TYPE = 0
CLASSIFICATION_TYPE = U
NORAD_CAT_ID   = 24298
ELEMENT_SET_NO = 999
REV_AT_EPOCH   = 51603
BSTAR          = .69285029E-4
MEAN_MOTION_DOT = .79E-6
MEAN_MOTION_DDOT = 0

CCSDS_OMM_VERS = 2.0
CREATION_DATE  = 
ORIGINATOR     = 

OBJECT_NAME    = ORBVIEW 2 (SEASTAR)
OBJECT_ID      = 1997-037A
CENTER_NAME    = EARTH
REF_FRAME      = TEME
TIME_SYSTEM    = UTC
MEAN_ELEMENT_THEORY = SGP/SGP4

EPOCH          = 2026-01-28T23:11:08.837664
MEAN_MOTION    = 14.35462239
ECCENTRICITY   = .00025061
INCLINATION    = 98.8499
RA_OF_ASC_NODE = 192.2409
ARG_OF_PERICENTER = 155.1679
MEAN_ANOMALY   = 204.9627

EPHEMERIS_TYPE = 0
CLASSIFICATION_TYPE = U
NORAD_CAT_ID   = 24883
ELEMENT_SET_NO = 999
REV_AT_EPOCH   = 50277
BSTAR          = .20376855E-3
MEAN_MOTION_DOT = .539E-5
MEAN_MOTION_DDOT = 0

